{
  "type": "FeatureCollection",
  "features": [
    {
      "type": "Feature",
      "properties": {
        "scenario_id": "scen-tehri-002-catastrophic",
        "zone": "Maximum Inundation Extent (Precomputed Demo)",
        "max_depth_range": "3.5m - 22.8m"
      },
      "geometry": {
        "type": "Polygon",
        "coordinates": [
          [
            [
              78.49,
              30.385
            ],
            [
              78.465,
              30.345
            ],
            [
              78.515,
              30.275
            ],
            [
              78.615,
              30.135
            ],
            [
              78.47,
              30.095
            ],
            [
              78.375,
              30.125
            ],
            [
              78.31,
              30.118
            ],
            [
              78.295,
              30.102
            ],
            [
              78.245,
              30.075
            ],
            [
              78.27,
              30.098
            ],
            [
              78.322,
              30.128
            ],
            [
              78.338,
              30.142
            ],
            [
              78.402,
              30.148
            ],
            [
              78.488,
              30.122
            ],
            [
              78.62,
              30.158
            ],
            [
              78.522,
              30.298
            ],
            [
              78.485,
              30.355
            ],
            [
              78.495,
              30.385
            ]
          ]
        ]
      }
    }
  ]
}