{
  "type": "FeatureCollection",
  "features": [
    {
      "type": "Feature",
      "properties": {
        "scenario_id": "scen-tehri-003-piping",
        "zone": "Moderate Inundation Extent (Piping)",
        "max_depth_range": "0.8m - 8.5m"
      },
      "geometry": {
        "type": "Polygon",
        "coordinates": [
          [
            [
              78.482,
              30.375
            ],
            [
              78.475,
              30.338
            ],
            [
              78.508,
              30.282
            ],
            [
              78.6,
              30.144
            ],
            [
              78.478,
              30.104
            ],
            [
              78.39,
              30.13
            ],
            [
              78.325,
              30.125
            ],
            [
              78.312,
              30.112
            ],
            [
              78.27,
              30.085
            ],
            [
              78.28,
              30.092
            ],
            [
              78.315,
              30.118
            ],
            [
              78.328,
              30.132
            ],
            [
              78.392,
              30.138
            ],
            [
              78.475,
              30.112
            ],
            [
              78.605,
              30.149
            ],
            [
              78.512,
              30.288
            ],
            [
              78.478,
              30.344
            ],
            [
              78.485,
              30.375
            ]
          ]
        ]
      }
    }
  ]
}