{
  "type": "FeatureCollection",
  "features": [
    {
      "type": "Feature",
      "properties": {
        "scenario_id": "scen-tehri-001-baseline",
        "zone": "Active Floodplain Extent",
        "max_depth_range": "2.0m - 14.5m"
      },
      "geometry": {
        "type": "Polygon",
        "coordinates": [
          [
            [
              78.485,
              30.38
            ],
            [
              78.472,
              30.34
            ],
            [
              78.51,
              30.28
            ],
            [
              78.605,
              30.14
            ],
            [
              78.475,
              30.1
            ],
            [
              78.385,
              30.128
            ],
            [
              78.32,
              30.122
            ],
            [
              78.305,
              30.108
            ],
            [
              78.26,
              30.08
            ],
            [
              78.275,
              30.095
            ],
            [
              78.318,
              30.122
            ],
            [
              78.33,
              30.135
            ],
            [
              78.395,
              30.14
            ],
            [
              78.48,
              30.115
            ],
            [
              78.61,
              30.152
            ],
            [
              78.515,
              30.29
            ],
            [
              78.48,
              30.348
            ],
            [
              78.49,
              30.38
            ]
          ]
        ]
      }
    }
  ]
}